NORAD_CAT_ID,OBJECT_NAME,OBJECT_TYPE,EPOCH,MEAN_MOTION,ECCENTRICITY,INCLINATION,RA_OF_ASC_NODE,ARG_OF_PERICENTER,MEAN_ANOMALY,BSTAR,MEAN_MOTION_DOT,MEAN_MOTION_DDOT,TLE_LINE0,TLE_LINE1,TLE_LINE2,SEMIMAJOR_AXIS,PERIOD,APOGEE,PERIGEE,DECAYED
53399.0,STARLINK-4528,PAYLOAD,2023-03-26 20:07:07,15.08838895,9.39e-05,53.2134,287.2763,58.2883,301.82,0.00059514,9.196e-05,0.0,0 STARLINK-4528,1 53399U 22097M   23085.83827924  .00009196  00000-0  59514-3 0  9992,2 53399  53.2134 287.2763 0000939  58.2883 301.8200 15.08838895 35152,6917.884,95.438,540.398,539.099,0.0
53399.0,STARLINK-4528,PAYLOAD,2023-03-27 13:36:21,15.08856155,0.0001058,53.2136,284.0044,49.5161,310.5923,0.00075691,0.00011784,0.0,0 STARLINK-4528,1 53399U 22097M   23086.56691347  .00011784  00000-0  75691-3 0  9991,2 53399  53.2136 284.0044 0001058  49.5161 310.5923 15.08856155 35750,6917.831,95.437,540.428,538.964,0.0
53399.0,STARLINK-4528,PAYLOAD,2023-03-27 19:57:53,15.08878832,0.0001049,53.214,282.8148,45.687,314.4208,0.0008574,0.00013398,0.0,0 STARLINK-4528,1 53399U 22097M   23086.83186421  .00013398  00000-0  85740-3 0  9992,2 53399  53.2140 282.8148 0001049  45.6870 314.4208 15.08878832 35306,6917.762,95.435,540.352,538.901,0.0
53399.0,STARLINK-4528,PAYLOAD,2023-03-28 05:30:11,15.08866247,0.0001106,53.2143,281.0311,57.4871,302.6228,0.0001784,2.555e-05,0.0,0 STARLINK-4528,1 53399U 22097M   23087.22929982  .00002555  00000-0  17840-3 0  9992,2 53399  53.2143 281.0311 0001106  57.4871 302.6228 15.08866247 35362,6917.8,95.436,540.43,538.9,0.0
53399.0,STARLINK-4528,PAYLOAD,2023-03-28 13:27:07,15.08857444,0.0001518,53.214,279.5438,69.9512,290.1644,2.3156e-05,8.1e-07,0.0,0 STARLINK-4528,1 53399U 22097M   23087.56049953  .00000081  00000-0  23156-4 0  9990,2 53399  53.2140 279.5438 0001518  69.9512 290.1644 15.08857444 35900,6917.827,95.436,540.742,538.642,0.0
53399.0,STARLINK-4528,PAYLOAD,2023-03-28 16:37:53,15.08854493,0.0001164,53.2141,278.949,70.7234,289.3884,3.4226e-05,2.57e-06,0.0,0 STARLINK-4528,1 53399U 22097M   23087.69297825  .00000257  00000-0  34226-4 0  9992,2 53399  53.2141 278.9490 0001164  70.7234 289.3884 15.08854493 35435,6917.836,95.437,540.506,538.896,0.0
53399.0,STARLINK-4528,PAYLOAD,2023-03-28 18:13:16,15.08856687,0.0001175,53.2143,278.6517,72.9433,287.1687,0.00027738,4.131e-05,0.0,0 STARLINK-4528,1 53399U 22097M   23087.75921756  .00004131  00000-0  27738-3 0  9990,2 53399  53.2143 278.6517 0001175  72.9433 287.1687 15.08856687 35930,6917.829,95.436,540.507,538.882,0.0
53399.0,STARLINK-4528,PAYLOAD,2023-03-29 11:42:30,15.08850006,9.42e-05,53.2145,275.3812,88.494,271.616,0.00069246,0.00010753,0.0,0 STARLINK-4528,1 53399U 22097M   23088.48785806  .00010753  00000-0  69246-3 0  9992,2 53399  53.2145 275.3812 0000942  88.4940 271.6160 15.08850006 35551,6917.85,95.437,540.366,539.063,0.0
53399.0,STARLINK-4528,PAYLOAD,2023-03-29 19:39:26,15.08838467,6.85e-05,53.2137,273.8929,78.7603,281.3466,0.00019155,2.762e-05,0.0,0 STARLINK-4528,1 53399U 22097M   23088.81906046  .00002762  00000-0  19155-3 0  9995,2 53399  53.2137 273.8929 0000685  78.7603 281.3466 15.08838467 35606,6917.885,95.438,540.224,539.276,0.0
53399.0,STARLINK-4528,PAYLOAD,2023-03-30 17:54:50,15.08843431,0.0001028,53.2145,269.7303,79.818,280.2928,0.00017552,2.507e-05,0.0,0 STARLINK-4528,1 53399U 22097M   23089.74642305  .00002507  00000-0  17552-3 0  9999,2 53399  53.2145 269.7303 0001028  79.8180 280.2928 15.08843431 36237,6917.87,95.437,540.446,539.024,0.0
53399.0,STARLINK-4528,PAYLOAD,2023-03-31 05:02:32,15.08845336,9.78e-05,53.2146,267.6504,86.5838,273.5266,0.00027401,4.076e-05,0.0,0 STARLINK-4528,1 53399U 22097M   23090.21010258  .00004076  00000-0  27401-3 0  9996,2 53399  53.2146 267.6504 0000978  86.5838 273.5266 15.08845336 35815,6917.864,95.437,540.406,539.053,0.0
53399.0,STARLINK-4528,PAYLOAD,2023-04-01 04:53:20,15.08834265,0.0001421,53.2149,263.1905,67.1313,292.9829,-1.6018e-05,-5.43e-06,0.0,0 STARLINK-4528,1 53399U 22097M   23091.20370830 -.00000543  00000-0 -16018-4 0  9991,2 53399  53.2149 263.1905 0001421  67.1313 292.9829 15.08834265 35966,6917.898,95.438,540.746,538.78,0.0
53399.0,STARLINK-4528,PAYLOAD,2023-04-01 11:14:53,15.08833311,0.0001534,53.215,262.001,68.5828,291.5327,-1.9532e-05,-5.99e-06,0.0,0 STARLINK-4528,1 53399U 22097M   23091.46867094 -.00000599  00000-0 -19532-4 0  9997,2 53399  53.2150 262.0010 0001534  68.5828 291.5327 15.08833311 36492,6917.901,95.438,540.827,538.705,0.0
53399.0,STARLINK-4528,PAYLOAD,2023-04-01 17:36:25,15.08835337,0.0001407,53.2142,260.8116,67.1487,292.9653,4.1684e-05,3.75e-06,0.0,0 STARLINK-4528,1 53399U 22097M   23091.73363094  .00000375  00000-0  41684-4 0  9991,2 53399  53.2142 260.8116 0001407  67.1487 292.9653 15.08835337 36533,6917.895,95.438,540.733,538.786,0.0
53399.0,STARLINK-4528,PAYLOAD,2023-04-02 14:16:26,15.08850288,0.0001128,53.2141,256.9445,67.1433,292.9678,0.00039194,5.957e-05,0.0,0 STARLINK-4528,1 53399U 22097M   23092.59474738  .00005957  00000-0  39194-3 0  9997,2 53399  53.2141 256.9445 0001128  67.1433 292.9678 15.08850288 36173,6917.849,95.437,540.494,538.934,0.0
53399.0,STARLINK-4528,PAYLOAD,2023-04-02 17:27:12,15.08858946,0.000114,53.2142,256.3494,67.349,292.7623,0.00086451,0.00013505,0.0,0 STARLINK-4528,1 53399U 22097M   23092.72722694  .00013505  00000-0  86451-3 0  9995,2 53399  53.2142 256.3494 0001140  67.3490 292.7623 15.08858946 36684,6917.822,95.436,540.476,538.899,0.0
53399.0,STARLINK-4528,PAYLOAD,2023-04-03 10:56:27,15.08850027,0.0001259,53.2137,253.0784,53.6386,306.4723,0.0003572,5.403e-05,0.0,0 STARLINK-4528,1 53399U 22097M   23093.45586839  .00005403  00000-0  35720-3 0  9996,2 53399  53.2137 253.0784 0001259  53.6386 306.4723 15.08850027 36302,6917.85,95.437,540.586,538.844,0.0
53399.0,STARLINK-4528,PAYLOAD,2023-04-03 20:28:45,15.08851083,0.000132,53.2139,251.2931,79.5802,280.5339,0.00050933,7.83e-05,0.0,0 STARLINK-4528,1 53399U 22097M   23093.85330615  .00007830  00000-0  50933-3 0  9998,2 53399  53.2139 251.2931 0001320  79.5802 280.5339 15.08851083 36855,6917.847,95.437,540.625,538.798,0.0
53399.0,STARLINK-4528,PAYLOAD,2023-04-04 10:47:14,15.08838523,8.7e-05,53.2145,248.6175,47.6325,312.4741,0.00018668,2.684e-05,0.0,0 STARLINK-4528,1 53399U 22097M   23094.44946799  .00002684  00000-0  18668-3 0  9991,2 53399  53.2145 248.6175 0000870  47.6325 312.4741 15.08838523 36459,6917.885,95.438,540.352,539.148,0.0
53399.0,STARLINK-4528,PAYLOAD,2023-04-05 13:48:47,15.08831917,0.0001232,53.2117,243.5589,90.3487,269.7646,0.00011815,1.593e-05,0.0,0 STARLINK-4528,1 53399U 22097M   23095.57555412  .00001593  00000-0  11815-3 0  9999,2 53399  53.2117 243.5589 0001232  90.3487 269.7646 15.08831917 37110,6917.905,95.438,540.622,538.918,0.0
53399.0,STARLINK-4528,PAYLOAD,2023-04-05 15:24:10,15.08834619,0.000123,53.2132,243.2621,95.587,264.5262,-4.9547e-05,-1.076e-05,0.0,0 STARLINK-4528,1 53399U 22097M   23095.64179226 -.00001076  00000-0 -49547-4 0  9994,2 53399  53.2132 243.2621 0001230  95.5870 264.5262 15.08834619 36637,6917.897,95.438,540.613,538.911,0.0
53399.0,STARLINK-4528,PAYLOAD,2023-04-05 16:59:34,15.08834442,9.71e-05,53.2133,242.9656,80.317,279.7932,6.1568e-05,6.92e-06,0.0,0 STARLINK-4528,1 53399U 22097M   23095.70803385  .00000692  00000-0  61568-4 0  9999,2 53399  53.2133 242.9656 0000971  80.3170 279.7932 15.08834442 37130,6917.897,95.438,540.434,539.091,0.0
53399.0,STARLINK-4528,PAYLOAD,2023-04-06 08:53:26,15.0882563,9e-05,53.2146,239.9949,70.8446,289.2643,3.642e-08,-2.87e-06,0.0,0 STARLINK-4528,1 53399U 22097M   23096.37044327 -.00000287  00000-0  36420-7 0  9999,2 53399  53.2146 239.9949 0000900  70.8446 289.2643 15.08825630 36747,6917.924,95.438,540.412,539.167,0.0
53399.0,STARLINK-4528,PAYLOAD,2023-04-06 18:25:45,15.08825191,9.91e-05,53.215,238.2106,79.8732,280.2371,-2.6053e-05,-7.02e-06,0.0,0 STARLINK-4528,1 53399U 22097M   23096.76788713 -.00000702  00000-0 -26053-4 0  9997,2 53399  53.2150 238.2106 0000991  79.8732 280.2371 15.08825191 37298,6917.926,95.438,540.476,539.105,0.0
53399.0,STARLINK-4528,PAYLOAD,2023-04-07 02:22:40,15.08836631,0.0001265,53.2164,236.7226,87.5034,272.6103,0.00026758,3.973e-05,0.0,0 STARLINK-4528,1 53399U 22097M   23097.09908349  .00003973  00000-0  26758-3 0  9995,2 53399  53.2164 236.7226 0001265  87.5034 272.6103 15.08836631 36855,6917.891,95.438,540.631,538.881,0.0
53399.0,STARLINK-4528,PAYLOAD,2023-04-07 10:19:36,15.08852038,0.0001182,53.216,235.2357,88.1032,272.0095,0.00056304,8.687e-05,0.0,0 STARLINK-4528,1 53399U 22097M   23097.43027928  .00008687  00000-0  56304-3 0  9995,2 53399  53.2160 235.2357 0001182  88.1032 272.0095 15.08852038 36902,6917.844,95.437,540.526,538.891,0.0
53399.0,STARLINK-4528,PAYLOAD,2023-04-07 18:16:31,15.08866631,0.0001315,53.2161,233.7489,90.0498,270.0645,0.00079911,0.00012462,0.0,0 STARLINK-4528,1 53399U 22097M   23097.76147300  .00012462  00000-0  79911-3 0  9993,2 53399  53.2161 233.7489 0001315  90.0498 270.0645 15.08866631 36956,6917.799,95.436,540.574,538.754,0.0
53399.0,STARLINK-4528,PAYLOAD,2023-04-08 13:21:09,15.08845893,9.98e-05,53.2163,230.1807,76.0428,284.0675,0.00024326,3.586e-05,0.0,0 STARLINK-4528,1 53399U 22097M   23098.55635574  .00003586  00000-0  24326-3 0  9993,2 53399  53.2163 230.1807 0000998  76.0428 284.0675 15.08845893 37075,6917.862,95.437,540.418,539.037,0.0
53399.0,STARLINK-4528,PAYLOAD,2023-04-09 02:04:14,15.088402,0.0001596,53.2155,227.8024,73.422,286.6947,0.00039378,5.985e-05,0.0,0 STARLINK-4528,1 53399U 22097M   23099.08627958  .00005985  00000-0  39378-3 0  9997,2 53399  53.2155 227.8024 0001596  73.4220 286.6947 15.08840200 37152,6917.88,95.438,540.849,538.641,0.0
53399.0,STARLINK-4528,PAYLOAD,2023-04-09 08:25:47,15.0883732,0.000157,53.2151,226.6126,81.8577,278.2593,0.00015054,2.108e-05,0.0,0 STARLINK-4528,1 53399U 22097M   23099.35124080  .00002108  00000-0  15054-3 0  9994,2 53399  53.2151 226.6126 0001570  81.8577 278.2593 15.08837320 37689,6917.889,95.438,540.84,538.667,0.0
